{
  "type": "FeatureCollection",
  "features": [
    {
      "type": "Feature",
      "properties": {
        "norad_id": 66329,
        "name": "STARLINK-35505",
        "group": "last-30-days",
        "lat": -42.552955904593055,
        "lon": -41.1430660797803,
        "alt_km": 419.167480044508,
        "timestamp": "2025-12-03T10:52:56.220116+00:00",
        "meta_object_name": "STARLINK-35505",
        "meta_object_id": "2025-253L",
        "meta_epoch": "2025-12-02T21:19:39.072288",
        "meta_mean_motion": 15.50727196,
        "meta_eccentricity": 0.0004007,
        "meta_inclination": 42.9944,
        "meta_ra_of_asc_node": 42.3497,
        "meta_arg_of_pericenter": 64.2756,
        "meta_mean_anomaly": 295.8518,
        "meta_ephemeris_type": 0,
        "meta_classification_type": "U",
        "meta_norad_cat_id": 66329,
        "meta_element_set_no": 999,
        "meta_rev_at_epoch": 540,
        "meta_bstar": 0.0055423,
        "meta_mean_motion_dot": 0.00341195,
        "meta_mean_motion_ddot": 0,
        "tle_line1": "1 66329U 25253L   25336.88864667  .00341195  00000+0  55423-2 0  9998",
        "tle_line2": "2 66329  42.9944  42.3497 0004007  64.2756 295.8518 15.50727196  5400"
      },
      "geometry": {
        "type": "Point",
        "coordinates": [
          -41.1430660797803,
          -42.552955904593055
        ]
      }
    },
    {
      "type": "Feature",
      "properties": {
        "norad_id": 66330,
        "name": "STARLINK-35512",
        "group": "last-30-days",
        "lat": -10.092211243856788,
        "lon": -129.75221286302596,
        "alt_km": 444.960831896592,
        "timestamp": "2025-12-03T10:52:56.220128+00:00",
        "meta_object_name": "STARLINK-35512",
        "meta_object_id": "2025-253M",
        "meta_epoch": "2025-12-03T04:00:01.998720",
        "meta_mean_motion": 15.40699918,
        "meta_eccentricity": 0.0001832,
        "meta_inclination": 43.0008,
        "meta_ra_of_asc_node": 40.8895,
        "meta_arg_of_pericenter": 279.5569,
        "meta_mean_anomaly": 122.9834,
        "meta_ephemeris_type": 0,
        "meta_classification_type": "U",
        "meta_norad_cat_id": 66330,
        "meta_element_set_no": 999,
        "meta_rev_at_epoch": 539,
        "meta_bstar": -9.107e-05,
        "meta_mean_motion_dot": -4.106e-05,
        "meta_mean_motion_ddot": 0,
        "tle_line1": "1 66330U 25253M   25337.16668980 -.00004106  00000+0 -91070-4 0  9992",
        "tle_line2": "2 66330  43.0008  40.8895 0001832 279.5569 122.9834 15.40699918  5394"
      },
      "geometry": {
        "type": "Point",
        "coordinates": [
          -129.75221286302596,
          -10.092211243856788
        ]
      }
    },
    {
      "type": "Feature",
      "properties": {
        "norad_id": 66331,
        "name": "STARLINK-35257",
        "group": "last-30-days",
        "lat": -35.40828264266266,
        "lon": -10.744080539837304,
        "alt_km": 416.6515439132427,
        "timestamp": "2025-12-03T10:52:56.220141+00:00",
        "meta_object_name": "STARLINK-35257",
        "meta_object_id": "2025-253N",
        "meta_epoch": "2025-12-02T21:13:11.872416",
        "meta_mean_motion": 15.50647412,
        "meta_eccentricity": 0.0001155,
        "meta_inclination": 43,
        "meta_ra_of_asc_node": 42.3052,
        "meta_arg_of_pericenter": 300.2073,
        "meta_mean_anomaly": 59.8672,
        "meta_ephemeris_type": 0,
        "meta_classification_type": "U",
        "meta_norad_cat_id": 66331,
        "meta_element_set_no": 999,
        "meta_rev_at_epoch": 540,
        "meta_bstar": 0.0021787,
        "meta_mean_motion_dot": 0.00129932,
        "meta_mean_motion_ddot": 0,
        "tle_line1": "1 66331U 25253N   25336.88416519  .00129932  00000+0  21787-2 0  9999",
        "tle_line2": "2 66331  43.0000  42.3052 0001155 300.2073  59.8672 15.50647412  5402"
      },
      "geometry": {
        "type": "Point",
        "coordinates": [
          -10.744080539837304,
          -35.40828264266266
        ]
      }
    },
    {
      "type": "Feature",
      "properties": {
        "norad_id": 66332,
        "name": "STARLINK-35322",
        "group": "last-30-days",
        "lat": -38.90039168241933,
        "lon": -20.993485754375875,
        "alt_km": 416.66896452461424,
        "timestamp": "2025-12-03T10:52:56.220154+00:00",
        "meta_object_name": "STARLINK-35322",
        "meta_object_id": "2025-253P",
        "meta_epoch": "2025-12-02T05:48:04.239936",
        "meta_mean_motion": 15.50671276,
        "meta_eccentricity": 9.86e-05,
        "meta_inclination": 43.0002,
        "meta_ra_of_asc_node": 46.0856,
        "meta_arg_of_pericenter": 282.8379,
        "meta_mean_anomaly": 77.2371,
        "meta_ephemeris_type": 0,
        "meta_classification_type": "U",
        "meta_norad_cat_id": 66332,
        "meta_element_set_no": 999,
        "meta_rev_at_epoch": 530,
        "meta_bstar": 0.001523,
        "meta_mean_motion_dot": 0.00090339,
        "meta_mean_motion_ddot": 0,
        "tle_line1": "1 66332U 25253P   25336.24171574  .00090339  00000+0  15230-2 0  9993",
        "tle_line2": "2 66332  43.0002  46.0856 0000986 282.8379  77.2371 15.50671276  5307"
      },
      "geometry": {
        "type": "Point",
        "coordinates": [
          -20.993485754375875,
          -38.90039168241933
        ]
      }
    },
    {
      "type": "Feature",
      "properties": {
        "norad_id": 66333,
        "name": "STARLINK-35400",
        "group": "last-30-days",
        "lat": -36.2432436691786,
        "lon": -12.901067015084111,
        "alt_km": 416.82170334526654,
        "timestamp": "2025-12-03T10:52:56.220167+00:00",
        "meta_object_name": "STARLINK-35400",
        "meta_object_id": "2025-253Q",
        "meta_epoch": "2025-12-02T21:13:41.530080",
        "meta_mean_motion": 15.50641369,
        "meta_eccentricity": 0.0001052,
        "meta_inclination": 42.9984,
        "meta_ra_of_asc_node": 42.3069,
        "meta_arg_of_pericenter": 293.896,
        "meta_mean_anomaly": 66.179,
        "meta_ephemeris_type": 0,
        "meta_classification_type": "U",
        "meta_norad_cat_id": 66333,
        "meta_element_set_no": 999,
        "meta_rev_at_epoch": 540,
        "meta_bstar": 0.0019778,
        "meta_mean_motion_dot": 0.00117708,
        "meta_mean_motion_ddot": 0,
        "tle_line1": "1 66333U 25253Q   25336.88450845  .00117708  00000+0  19778-2 0  9996",
        "tle_line2": "2 66333  42.9984  42.3069 0001052 293.8960  66.1790 15.50641369  5406"
      },
      "geometry": {
        "type": "Point",
        "coordinates": [
          -12.901067015084111,
          -36.2432436691786
        ]
      }
    },
    {
      "type": "Feature",
      "properties": {
        "norad_id": 66334,
        "name": "STARLINK-35407",
        "group": "last-30-days",
        "lat": -38.6702959548609,
        "lon": -20.191826024047344,
        "alt_km": 415.85048697284765,
        "timestamp": "2025-12-03T10:52:56.220181+00:00",
        "meta_object_name": "STARLINK-35407",
        "meta_object_id": "2025-253R",
        "meta_epoch": "2025-12-02T05:47:54.704832",
        "meta_mean_motion": 15.50606846,
        "meta_eccentricity": 0.000182,
        "meta_inclination": 43.0002,
        "meta_ra_of_asc_node": 46.0853,
        "meta_arg_of_pericenter": 277.7851,
        "meta_mean_anomaly": 82.2803,
        "meta_ephemeris_type": 0,
        "meta_classification_type": "U",
        "meta_norad_cat_id": 66334,
        "meta_element_set_no": 999,
        "meta_rev_at_epoch": 530,
        "meta_bstar": 0.0026112,
        "meta_mean_motion_dot": 0.00156096,
        "meta_mean_motion_ddot": 0,
        "tle_line1": "1 66334U 25253R   25336.24160538  .00156096  00000+0  26112-2 0  9997",
        "tle_line2": "2 66334  43.0002  46.0853 0001820 277.7851  82.2803 15.50606846  5309"
      },
      "geometry": {
        "type": "Point",
        "coordinates": [
          -20.191826024047344,
          -38.6702959548609
        ]
      }
    },
    {
      "type": "Feature",
      "properties": {
        "norad_id": 66335,
        "name": "STARLINK-35417",
        "group": "last-30-days",
        "lat": 15.072225280683293,
        "lon": -157.4720711191593,
        "alt_km": 442.1559638252538,
        "timestamp": "2025-12-03T10:52:56.220193+00:00",
        "meta_object_name": "STARLINK-35417",
        "meta_object_id": "2025-253S",
        "meta_epoch": "2025-12-03T04:00:01.998720",
        "meta_mean_motion": 15.40623936,
        "meta_eccentricity": 0.0001299,
        "meta_inclination": 43.001,
        "meta_ra_of_asc_node": 40.9777,
        "meta_arg_of_pericenter": 274.6121,
        "meta_mean_anomaly": 90.6627,
        "meta_ephemeris_type": 0,
        "meta_classification_type": "U",
        "meta_norad_cat_id": 66335,
        "meta_element_set_no": 999,
        "meta_rev_at_epoch": 539,
        "meta_bstar": 0.0021477,
        "meta_mean_motion_dot": 0.00090251,
        "meta_mean_motion_ddot": 0,
        "tle_line1": "1 66335U 25253S   25337.16668980  .00090251  00000+0  21477-2 0  9993",
        "tle_line2": "2 66335  43.0010  40.9777 0001299 274.6121  90.6627 15.40623936  5397"
      },
      "geometry": {
        "type": "Point",
        "coordinates": [
          -157.4720711191593,
          15.072225280683293
        ]
      }
    }
  ]
}